QIANFAN-89              
1 63175U 25046S   25214.81924332  .00000142  00000+0  20044-3 0  9994
2 63175  88.9859 333.6296 0018030 143.0525 217.1872 13.50963475 29591
QIANFAN-90              
1 63176U 25046T   25215.51462187  .00000157  00000+0  22385-3 0  9994
2 63176  88.9860 333.5305 0015058 138.8281 221.4009 13.50962303 29704
